[{"OBJECT_NAME":"STARLINK-30973","OBJECT_ID":"2024-002J","EPOCH":"2026-03-09T16:03:24.974784","MEAN_MOTION":15.30180346,"ECCENTRICITY":0.00011247,"INCLINATION":53.1592,"RA_OF_ASC_NODE":229.9278,"ARG_OF_PERICENTER":82.5186,"MEAN_ANOMALY":277.5943,"EPHEMERIS_TYPE":0,"CLASSIFICATION_TYPE":"U","NORAD_CAT_ID":58713,"ELEMENT_SET_NO":999,"REV_AT_EPOCH":12201,"BSTAR":-4.3208601e-5,"MEAN_MOTION_DOT":-1.638e-5,"MEAN_MOTION_DDOT":0},{"OBJECT_NAME":"SCS-01 M","OBJECT_ID":"2025-100M","EPOCH":"2026-03-09T23:50:15.541152","MEAN_MOTION":15.31880861,"ECCENTRICITY":0.00078021,"INCLINATION":97.3725,"RA_OF_ASC_NODE":145.6908,"ARG_OF_PERICENTER":292.3826,"MEAN_ANOMALY":67.6588,"EPHEMERIS_TYPE":0,"CLASSIFICATION_TYPE":"U","NORAD_CAT_ID":63993,"ELEMENT_SET_NO":999,"REV_AT_EPOCH":4565,"BSTAR":0.0012010051,"MEAN_MOTION_DOT":0.00037061,"MEAN_MOTION_DDOT":0}]
